NORAD_CAT_ID,OBJECT_NAME,OBJECT_TYPE,EPOCH,MEAN_MOTION,ECCENTRICITY,INCLINATION,RA_OF_ASC_NODE,ARG_OF_PERICENTER,MEAN_ANOMALY,BSTAR,MEAN_MOTION_DOT,MEAN_MOTION_DDOT,TLE_LINE0,TLE_LINE1,TLE_LINE2,SEMIMAJOR_AXIS,PERIOD,APOGEE,PERIGEE,DECAYED
53617.0,STARLINK-4601,PAYLOAD,2022-10-27 14:00:01,15.26855201,0.0001613,53.2175,352.3187,39.391,337.1773,-0.043388,-0.01063269,0.0,0 STARLINK-4601,1 53617U 22104AF  22300.58335648 -.01063269  00000-0 -43388-1 0  9996,2 53617  53.2175 352.3187 0001613  39.3910 337.1773 15.26855201  9502,6863.357,94.311,486.329,484.115,0.0
53617.0,STARLINK-4601,PAYLOAD,2022-10-27 22:00:00,15.2609641,0.0001456,53.2175,350.7794,46.1964,3.089,-0.044475,-0.01064835,0.0,0 STARLINK-4601,1 53617U 22104AF  22300.91667824 -.01064835  00000-0 -44475-1 0  9995,2 53617  53.2175 350.7794 0001456  46.1964   3.0890 15.26096410  1306,6865.632,94.358,488.497,486.497,0.0
53617.0,STARLINK-4601,PAYLOAD,2022-10-28 14:00:01,15.24577109,0.0001751999999999,53.2169,347.7122,42.2699,69.8987,-0.046488,-0.01063245,0.0,0 STARLINK-4601,1 53617U 22104AF  22301.58335648 -.01063245  00000-0 -46488-1 0  9995,2 53617  53.2169 347.7122 0001752  42.2699  69.8987 15.24577109  1305,6870.193,94.452,493.261,490.854,0.0
53617.0,STARLINK-4601,PAYLOAD,2022-10-28 22:00:01,15.2381625,0.0001768,53.2173,346.1779,40.7605,101.4521,-0.047493,-0.01061814,0.0,0 STARLINK-4601,1 53617U 22104AF  22301.91668981 -.01061814  00000-0 -47493-1 0  9998,2 53617  53.2173 346.1779 0001768  40.7605 101.4521 15.23816250  9709,6872.479,94.5,495.559,493.129,0.0
53617.0,STARLINK-4601,PAYLOAD,2022-10-29 12:00:00,15.22488976,0.0001974,53.2176,343.5023,35.0177,67.5066,-0.049555,-0.01064657,0.0,0 STARLINK-4601,1 53617U 22104AF  22302.50001157 -.01064657  00000-0 -49555-1 0  9999,2 53617  53.2176 343.5023 0001974  35.0177  67.5066 15.22488976  1308,6876.473000000001,94.582,499.695,496.981,0.0
53617.0,STARLINK-4601,PAYLOAD,2022-10-29 22:00:01,15.21536975,0.0001693,53.2173,341.5918,44.2809,182.5811,-0.050731,-0.01059939,0.0,0 STARLINK-4601,1 53617U 22104AF  22302.91668981 -.01059939  00000-0 -50731-1 0  9993,2 53617  53.2173 341.5918 0001693  44.2809 182.5811 15.21536975  1306,6879.340999999999,94.641,502.371,500.041,0.0
53617.0,STARLINK-4601,PAYLOAD,2022-10-30 00:00:00,15.2134717,0.0001564999999999,53.2173,341.2101,42.18899999999999,281.2931,-0.051036,-0.01060287,0.0,0 STARLINK-4601,1 53617U 22104AF  22303.00001157 -.01060287  00000-0 -51036-1 0  9997,2 53617  53.2173 341.2101 0001565  42.1890 281.2931 15.21347170  9868,6879.913000000001,94.653,502.855,500.701,0.0
53617.0,STARLINK-4601,PAYLOAD,2022-10-30 14:00:01,15.1999989,0.0001631999999999,53.2169,338.5456,48.6443,230.0303,-0.051627,-0.01033257,0.0,0 STARLINK-4601,1 53617U 22104AF  22303.58334491 -.01033257  00000-0 -51627-1 0  9993,2 53617  53.2169 338.5456 0001632  48.6443 230.0303 15.19999890  1300,6883.978,94.737,506.966,504.719,0.0
53617.0,STARLINK-4601,PAYLOAD,2022-10-30 22:00:01,15.19258386,0.0001371,53.2175,337.0218,57.3206,245.9766,-0.0542179999999999,-0.01059416,0.0,0 STARLINK-4601,1 53617U 22104AF  22303.91668981 -.01059416  00000-0 -54218-1 0  9998,2 53617  53.2175 337.0218 0001371  57.3206 245.9766 15.19258386  1307,6886.218000000003,94.783,509.027,507.139,0.0
53617.0,STARLINK-4601,PAYLOAD,2022-10-31 14:00:01,15.17743184,0.0001595,53.2168,333.9864,45.5122,304.1119,-0.056946,-0.01077897,0.0,0 STARLINK-4601,1 53617U 22104AF  22304.58334491 -.01077897  00000-0 -56946-1 0  9991,2 53617  53.2168 333.9864 0001595  45.5122 304.1119 15.17743184  1308,6890.8,94.878,513.764,511.566,0.0
53617.0,STARLINK-4601,PAYLOAD,2022-10-31 22:00:01,15.16979424,0.0001418,53.2174,332.4679,48.5445,322.9741,-0.057886,-0.01072218,0.0,0 STARLINK-4601,1 53617U 22104AF  22304.91668981 -.01072218  00000-0 -57886-1 0  9998,2 53617  53.2174 332.4679 0001418  48.5445 322.9741 15.16979424 10168,6893.113,94.925,515.955,514.0,0.0
53617.0,STARLINK-4601,PAYLOAD,2022-11-01 14:00:01,15.15462962,0.0001715,53.2168,329.4430000000001,41.2556,11.1149,-0.060648,-0.01075397,0.0,0 STARLINK-4601,1 53617U 22104AF  22305.58334491 -.01075397  00000-0 -60648-1 0  9999,2 53617  53.2168 329.4430 0001715  41.2556  11.1149 15.15462962  1303,6897.71,95.02,520.758,518.3919999999998,0.0
53617.0,STARLINK-4601,PAYLOAD,2022-11-01 22:00:00,15.14701246,0.0001585999999999,53.2174,327.93,44.3784,27.0843,-0.061821,-0.01072842,0.0,0 STARLINK-4601,1 53617U 22104AF  22305.91667824 -.01072842  00000-0 -61821-1 0  9991,2 53617  53.2174 327.9300 0001586  44.3784  27.0843 15.14701246 10310,6900.023,95.068,522.982,520.793,0.0
53617.0,STARLINK-4601,PAYLOAD,2022-11-02 14:00:01,15.13182922,0.0001746,53.2173,324.9152,42.5118,64.3909,-0.064529,-0.01072764,0.0,0 STARLINK-4601,1 53617U 22104AF  22306.58334491 -.01072764  00000-0 -64529-1 0  9997,2 53617  53.2173 324.9152 0001746  42.5118  64.3909 15.13182922  1309,6904.638000000001,95.164,527.7080000000002,525.297,0.0
53617.0,STARLINK-4601,PAYLOAD,2022-11-02 22:00:00,15.12423552,0.0001727,53.2174,323.408,44.2375,79.0182,-0.066015,-0.0107416,0.0,0 STARLINK-4601,1 53617U 22104AF  22306.91667824 -.01074160  00000-0 -66015-1 0  9997,2 53617  53.2174 323.4080 0001727  44.2375  79.0182 15.12423552 10466,6906.949000000001,95.211,530.006,527.621,0.0
53617.0,STARLINK-4601,PAYLOAD,2022-11-03 14:00:01,15.10925574,0.0001786,53.2164,320.4043,41.2022,112.0074,-0.070824,-0.01102835,0.0,0 STARLINK-4601,1 53617U 22104AF  22307.58334491 -.01102835  00000-0 -70824-1 0  9996,2 53617  53.2164 320.4043 0001786  41.2022 112.0074 15.10925574  1302,6911.513000000001,95.306,534.612,532.144,0.0
53617.0,STARLINK-4601,PAYLOAD,2022-11-03 22:00:00,15.1014747,0.0001843,53.2173,318.9018,45.8186,121.0159,-0.070795,-0.01080574,0.0,0 STARLINK-4601,1 53617U 22104AF  22307.91667824 -.01080574  00000-0 -70795-1 0  9994,2 53617  53.2173 318.9018 0001843  45.8186 121.0159 15.10147470 10610,6913.887,95.355,537.026,534.4780000000002,0.0
53617.0,STARLINK-4601,PAYLOAD,2022-11-04 00:00:00,15.09922849,0.0001754,53.2174,318.5269,46.5468,213.5559,-0.065646,-0.01001533,0.0,0 STARLINK-4601,1 53617U 22104AF  22308.00001157 -.01001533  00000-0 -65646-1 0  9993,2 53617  53.2174 318.5269 0001754  46.5468 213.5559 15.09922849  1303,6914.573,95.369,537.65,535.225,0.0
53617.0,STARLINK-4601,PAYLOAD,2022-11-04 06:00:00,15.09269818,0.0001986,53.2175,317.4047,43.1667,136.3818,-0.034598,-0.00524077,0.0,0 STARLINK-4601,1 53617U 22104AF  22308.25001157 -.00524077  00000-0 -34598-1 0  9994,2 53617  53.2175 317.4047 0001986  43.1667 136.3818 15.09269818 10666,6916.566999999999,95.41,539.806,537.058,0.0
53617.0,STARLINK-4601,PAYLOAD,2022-11-04 14:00:01,15.08833681,0.0001903,53.2173,315.908,43.4324,148.0054,0.00033577,5.059e-05,0.0,0 STARLINK-4601,1 53617U 22104AF  22308.58334491  .00005059  00000-0  33577-3 0  9990,2 53617  53.2173 315.9080 0001903  43.4324 148.0054 15.08833681 10718,6917.9,95.438,541.081,538.448,0.0
53617.0,STARLINK-4601,PAYLOAD,2022-11-04 22:00:01,15.08837797,0.0001419,53.2137,314.4124,38.9205,164.0416,0.0034832,0.00055581,0.0,0 STARLINK-4601,1 53617U 22104AF  22308.91668981  .00055581  00000-0  34832-2 0  9990,2 53617  53.2137 314.4124 0001419  38.9205 164.0416 15.08837797 10767,6917.887,95.438,540.734,538.77,0.0
53617.0,STARLINK-4601,PAYLOAD,2022-11-05 00:00:00,15.08851451,0.0001444,53.214,314.0383,41.5114,254.2861,0.0028814,0.00045883,0.0,0 STARLINK-4601,1 53617U 22104AF  22309.00001157  .00045883  00000-0  28814-2 0  9994,2 53617  53.2140 314.0383 0001444  41.5114 254.2861 15.08851451  1300,6917.845,95.437,540.7090000000002,538.711,0.0
53617.0,STARLINK-4601,PAYLOAD,2022-11-05 14:00:01,15.08865746,0.0001822,53.2142,311.4207,41.1036,185.1049,-0.0030088,-0.00047889,0.0,0 STARLINK-4601,1 53617U 22104AF  22309.58335648 -.00047889  00000-0 -30088-2 0  9998,2 53617  53.2142 311.4207 0001822  41.1036 185.1049 15.08865746  1309,6917.802,95.436,540.927,538.406,0.0
53617.0,STARLINK-4601,PAYLOAD,2022-11-05 22:00:01,15.088052,0.0001766,53.2143,309.9225,48.975,188.8454,0.0035335,0.00056344,0.0,0 STARLINK-4601,1 53617U 22104AF  22309.91668981  .00056344  00000-0  35335-2 0  9998,2 53617  53.2143 309.9225 0001766  48.9750 188.8454 15.08805200  1306,6917.986999999999,95.44,541.073,538.63,0.0
53617.0,STARLINK-4601,PAYLOAD,2022-11-06 06:00:00,15.08841968,0.0001942,53.2144,308.4276,46.5661,202.7687,7.916100000000001e-05,9.72e-06,0.0,0 STARLINK-4601,1 53617U 22104AF  22310.25001157  .00000972  00000-0  79161-4 0  9996,2 53617  53.2144 308.4276 0001942  46.5661 202.7687 15.08841968 10965,6917.874,95.437,541.0830000000002,538.396,0.0
53617.0,STARLINK-4601,PAYLOAD,2022-11-06 14:00:01,15.08878074,0.0001906,53.2144,306.931,43.789,217.1373,-0.0037769,-0.00059961,0.0,0 STARLINK-4601,1 53617U 22104AF  22310.58334491 -.00059961  00000-0 -37769-2 0  9992,2 53617  53.2144 306.9310 0001906  43.7890 217.1373 15.08878074  1308,6917.764,95.435,540.948,538.31,0.0
53617.0,STARLINK-4601,PAYLOAD,2022-11-07 14:00:01,15.08848506,0.0001847,53.2148,302.4411,42.0873,253.6359,-0.00084804,-0.00013763,0.0,0 STARLINK-4601,1 53617U 22104AF  22311.58334491 -.00013763  00000-0 -84804-3 0  9996,2 53617  53.2148 302.4411 0001847  42.0873 253.6359 15.08848506 11163,6917.854,95.437,540.997,538.442,0.0
53617.0,STARLINK-4601,PAYLOAD,2022-11-07 22:00:00,15.0883674,0.0001766,53.2152,300.9432,49.9685,257.3578,0.00052524,8.08e-05,0.0,0 STARLINK-4601,1 53617U 22104AF  22311.91667824  .00008080  00000-0  52524-3 0  9990,2 53617  53.2152 300.9432 0001766  49.9685 257.3578 15.08836740  1307,6917.89,95.438,540.977,538.534,0.0
53617.0,STARLINK-4601,PAYLOAD,2022-11-08 10:00:01,15.08847861,0.0001972,53.2152,298.7003,45.6593,99.1671,0.0038983,0.00062316,0.0,0 STARLINK-4601,1 53617U 22104AF  22312.41668981  .00062316  00000-0  38983-2 0  9995,2 53617  53.2152 298.7003 0001972  45.6593  99.1671 15.08847861 11296,6917.856,95.437,541.086,538.357,0.0
